NORAD_CAT_ID,OBJECT_NAME,OBJECT_TYPE,EPOCH,MEAN_MOTION,ECCENTRICITY,INCLINATION,RA_OF_ASC_NODE,ARG_OF_PERICENTER,MEAN_ANOMALY,BSTAR,MEAN_MOTION_DOT,MEAN_MOTION_DDOT,TLE_LINE0,TLE_LINE1,TLE_LINE2,SEMIMAJOR_AXIS,PERIOD,APOGEE,PERIGEE,DECAYED
49755.0,STARLINK-3210,PAYLOAD,2023-04-26 11:32:57,15.0884409,0.000113,53.2133,174.7136,60.292,299.8184,0.0021578,0.00034224,0.0,0 STARLINK-3210,1 49755U 21115AH  23116.48121599  .00034224  00000-0  21578-2 0  9992,2 49755  53.2133 174.7136 0001130  60.2920 299.8184 15.08844090 77297,6917.868,95.437,540.515,538.951,0.0
49755.0,STARLINK-3210,PAYLOAD,2023-04-26 21:05:15,15.08849689,0.000172,53.2151,172.931,55.6342,304.4813,0.0014924,0.0002355,0.0,0 STARLINK-3210,1 49755U 21115AH  23116.87865728  .00023550  00000-0  14924-2 0  9991,2 49755  53.2151 172.9310 0001720  55.6342 304.4813 15.08849689 77350,6917.851,95.437,540.906,538.526,0.0
49755.0,STARLINK-3210,PAYLOAD,2023-04-27 03:26:48,15.08856592,0.0001476,53.2154,171.7391,62.6682,297.446,0.0011414,0.00017932,0.0,0 STARLINK-3210,1 49755U 21115AH  23117.14361453  .00017932  00000-0  11414-2 0  9996,2 49755  53.2154 171.7391 0001476  62.6682 297.4460 15.08856592 78500,6917.83,95.437,540.716,538.674,0.0
49755.0,STARLINK-3210,PAYLOAD,2023-04-27 09:48:20,15.08865299,0.0001517,53.2154,170.5499,61.15,298.9644,0.0011968,0.00018824,0.0,0 STARLINK-3210,1 49755U 21115AH  23117.40857080  .00018824  00000-0  11968-2 0  9996,2 49755  53.2154 170.5499 0001517  61.1500 298.9644 15.08865299 77430,6917.803,95.436,540.717,538.619,0.0
49755.0,STARLINK-3210,PAYLOAD,2023-04-28 06:28:20,15.08867947,0.0001588,53.2151,166.6837,60.2775,299.8375,0.00048448,7.437e-05,0.0,0 STARLINK-3210,1 49755U 21115AH  23118.26967863  .00007437  00000-0  48448-3 0  9994,2 49755  53.2151 166.6837 0001588  60.2775 299.8375 15.08867947 78671,6917.795,95.436,540.759,538.561,0.0
49755.0,STARLINK-3210,PAYLOAD,2023-04-28 09:39:06,15.08869295,0.000145,53.2148,166.0889,58.8046,301.3088,0.00048102,7.382e-05,0.0,0 STARLINK-3210,1 49755U 21115AH  23118.40215589  .00007382  00000-0  48102-3 0  9997,2 49755  53.2148 166.0889 0001450  58.8046 301.3088 15.08869295 77587,6917.791,95.436,540.659,538.653,0.0
49755.0,STARLINK-3210,PAYLOAD,2023-04-29 12:40:39,15.08848663,0.0001482,53.2159,161.0339,65.973,294.1417,-9.9239e-06,-4.46e-06,0.0,0 STARLINK-3210,1 49755U 21115AH  23119.52823269 -.00000446  00000-0 -99239-5 0  9996,2 49755  53.2159 161.0339 0001482  65.9730 294.1417 15.08848663 77758,6917.854,95.437,540.744,538.694,0.0
49755.0,STARLINK-3210,PAYLOAD,2023-04-30 02:59:07,15.08840769,0.0001522,53.2161,158.3562,67.9628,292.1526,-2.9495e-05,-7.57e-06,0.0,0 STARLINK-3210,1 49755U 21115AH  23120.12439512 -.00000757  00000-0 -29495-4 0  9999,2 49755  53.2161 158.3562 0001522  67.9628 292.1526 15.08840769 78952,6917.878,95.438,540.796,538.69,0.0
49755.0,STARLINK-3210,PAYLOAD,2023-04-30 09:20:40,15.08840829,0.0001455,53.216,157.1666,72.547,287.5681,-3.6429e-05,-8.68e-06,0.0,0 STARLINK-3210,1 49755U 21115AH  23120.38935513 -.00000868  00000-0 -36429-4 0  9997,2 49755  53.2160 157.1666 0001455  72.5470 287.5681 15.08840829 77883,6917.878,95.438,540.749,538.736,0.0
49755.0,STARLINK-3210,PAYLOAD,2023-05-01 06:00:41,15.08836232,0.0001473,53.2167,153.2992,89.0717,271.0444,0.00011163,1.489e-05,0.0,0 STARLINK-3210,1 49755U 21115AH  23121.25047945  .00001489  00000-0  11163-3 0  9992,2 49755  53.2167 153.2992 0001473  89.0717 271.0444 15.08836232 79123,6917.892,95.438,540.776,538.738,0.0
49755.0,STARLINK-3210,PAYLOAD,2023-05-01 09:11:27,15.08836405,0.0001455,53.2166,152.7047,87.4976,272.6183,9.646e-05,1.247e-05,0.0,0 STARLINK-3210,1 49755U 21115AH  23121.38295949  .00001247  00000-0  96460-4 0  9991,2 49755  53.2166 152.7047 0001455  87.4976 272.6183 15.08836405 78034,6917.891,95.438,540.763,538.75,0.0
49755.0,STARLINK-3210,PAYLOAD,2023-05-01 13:57:37,15.08837827,0.0001462,53.2166,151.8125,88.7638,271.3522,0.00010171,1.331e-05,0.0,0 STARLINK-3210,1 49755U 21115AH  23121.58167888  .00001331  00000-0  10171-3 0  9991,2 49755  53.2166 151.8125 0001462  88.7638 271.3522 15.08837827 78063,6917.887,95.438,540.763,538.741,0.0
49755.0,STARLINK-3210,PAYLOAD,2023-05-02 10:37:37,15.08842467,0.0001425,53.2163,147.9476,84.7277,275.3878,0.00012137,1.644e-05,0.0,0 STARLINK-3210,1 49755U 21115AH  23122.44279726  .00001644  00000-0  12137-3 0  9993,2 49755  53.2163 147.9476 0001425  84.7277 275.3878 15.08842467 79301,6917.873,95.437,540.724,538.752,0.0
49755.0,STARLINK-3210,PAYLOAD,2023-05-03 10:28:25,15.08840296,0.00014,53.2169,143.4881,80.3816,279.7334,8.126e-05,1.006e-05,0.0,0 STARLINK-3210,1 49755U 21115AH  23123.43640213  .00001006  00000-0  81260-4 0  9992,2 49755  53.2169 143.4881 0001400  80.3816 279.7334 15.08840296 79451,6917.879,95.438,540.713,538.776,0.0
49755.0,STARLINK-3210,PAYLOAD,2023-05-04 10:19:11,15.08844186,0.0001312,53.2165,139.028,84.6413,275.4729,5.7054e-05,6.2e-06,0.0,0 STARLINK-3210,1 49755U 21115AH  23124.42999863  .00000620  00000-0  57054-4 0  9995,2 49755  53.2165 139.0280 0001312  84.6413 275.4729 15.08844186 78499,6917.868,95.437,540.64,538.825,0.0
49755.0,STARLINK-3210,PAYLOAD,2023-05-05 06:59:12,15.08842203,0.0001298,53.2165,135.162,85.0537,275.0603,8.376e-05,1.045e-05,0.0,0 STARLINK-3210,1 49755U 21115AH  23125.29111921  .00001045  00000-0  83760-4 0  9997,2 49755  53.2165 135.1620 0001298  85.0537 275.0603 15.08842203 79732,6917.874,95.437,540.637,538.841,0.0
49755.0,STARLINK-3210,PAYLOAD,2023-05-05 18:06:54,15.08840819,0.0001289,53.2165,133.081,83.4562,276.6577,6.5652e-05,7.57e-06,0.0,0 STARLINK-3210,1 49755U 21115AH  23125.75480049  .00000757  00000-0  65652-4 0  9997,2 49755  53.2165 133.0810 0001289  83.4562 276.6577 15.08840819 78692,6917.878,95.438,540.635,538.851,0.0
49755.0,STARLINK-3210,PAYLOAD,2023-05-06 06:49:59,15.08844641,0.0001309,53.2167,130.7018,87.138,272.9762,7.3698e-05,8.85e-06,0.0,0 STARLINK-3210,1 49755U 21115AH  23126.28471847  .00000885  00000-0  73698-4 0  9993,2 49755  53.2167 130.7018 0001309  87.1380 272.9762 15.08844641 78771,6917.866,95.437,540.637,538.826,0.0
49755.0,STARLINK-3210,PAYLOAD,2023-05-07 00:19:14,15.08842005,0.0001264,53.2164,127.4306,87.5394,272.5743,7.0692e-05,8.37e-06,0.0,0 STARLINK-3210,1 49755U 21115AH  23127.01335962  .00000837  00000-0  70692-4 0  9990,2 49755  53.2164 127.4306 0001264  87.5394 272.5743 15.08842005 79992,6917.874,95.437,540.614,538.865,0.0
49755.0,STARLINK-3210,PAYLOAD,2023-05-07 06:40:46,15.08843535,0.0001264,53.2164,126.241,88.3411,271.7725,8.0145e-05,9.88e-06,0.0,0 STARLINK-3210,1 49755U 21115AH  23127.27831822  .00000988  00000-0  80145-4 0  9995,2 49755  53.2164 126.2410 0001264  88.3411 271.7725 15.08843535 78926,6917.87,95.437,540.609,538.86,0.0
49755.0,STARLINK-3210,PAYLOAD,2023-05-08 04:56:11,15.08832359,0.0001236,53.2162,122.0783,87.8214,272.292,-4.3167e-06,-3.57e-06,0.0,0 STARLINK-3210,1 49755U 21115AH  23128.20568951 -.00000357  00000-0 -43167-5 0  9995,2 49755  53.2162 122.0783 0001236  87.8214 272.2920 15.08832359 80170,6917.904,95.438,540.624,538.914,0.0
49755.0,STARLINK-3210,PAYLOAD,2023-05-08 16:03:53,15.08836138,0.0001229,53.2163,119.9961,87.2339,272.8794,2.6468e-05,1.33e-06,0.0,0 STARLINK-3210,1 49755U 21115AH  23128.66936724  .00000133  00000-0  26468-4 0  9996,2 49755  53.2163 119.9961 0001229  87.2339 272.8794 15.08836138 79136,6917.892,95.438,540.607,538.907,0.0
49755.0,STARLINK-3210,PAYLOAD,2023-05-09 06:22:21,15.0884107,0.0001218,53.2166,117.3204,88.0676,272.0456,6.6792e-05,7.75e-06,0.0,0 STARLINK-3210,1 49755U 21115AH  23129.26552404  .00000775  00000-0  66792-4 0  9998,2 49755  53.2166 117.3204 0001218  88.0676 272.0456 15.08841070 79220,6917.877,95.437,540.585,538.9,0.0
49755.0,STARLINK-3210,PAYLOAD,2023-05-10 06:13:08,15.08838731,0.0001214,53.2167,112.8609,97.3673,262.7457,0.00012279,1.667e-05,0.0,0 STARLINK-3210,1 49755U 21115AH  23130.25912741  .00001667  00000-0  12279-3 0  9994,2 49755  53.2167 112.8609 0001214  97.3673 262.7457 15.08838731 79379,6917.884,95.438,540.589,538.909,0.0
49755.0,STARLINK-3210,PAYLOAD,2023-05-10 15:45:27,15.08837959,0.0001186,53.2167,111.0763,93.5299,266.5828,8.9925e-05,1.144e-05,0.0,0 STARLINK-3210,1 49755U 21115AH  23130.65656953  .00001144  00000-0  89925-4 0  9991,2 49755  53.2167 111.0763 0001186  93.5299 266.5828 15.08837959 79433,6917.887,95.438,540.572,538.931,0.0
49755.0,STARLINK-3210,PAYLOAD,2023-05-11 06:03:55,15.0884064,0.0001282,53.217,108.4008,93.2062,266.9077,4.945e-05,4.99e-06,0.0,0 STARLINK-3210,1 49755U 21115AH  23131.25272990  .00000499  00000-0  49450-4 0  9994,2 49755  53.2170 108.4008 0001282  93.2062 266.9077 15.08840640 79522,6917.878,95.438,540.63,538.857,0.0
49755.0,STARLINK-3210,PAYLOAD,2023-05-11 15:36:14,15.08837432,0.0001256,53.2168,106.6152,86.8826,273.231,2.3709e-05,8.9e-07,0.0,0 STARLINK-3210,1 49755U 21115AH  23131.65017298  .00000089  00000-0  23709-4 0  9990,2 49755  53.2168 106.6152 0001256  86.8826 273.2310 15.08837432 80692,6917.888,95.438,540.622,538.884,0.0
49755.0,STARLINK-3210,PAYLOAD,2023-05-12 04:19:20,15.0883496,0.0001365,53.2174,104.2353,87.8731,272.2418,1.6855e-05,-2e-07,0.0,0 STARLINK-3210,1 49755U 21115AH  23132.18009653 -.00000020  00000-0  16855-4 0  9995,2 49755  53.2174 104.2353 0001365  87.8731 272.2418 15.08834960 79669,6917.896,95.438,540.705,538.817,0.0
49755.0,STARLINK-3210,PAYLOAD,2023-05-12 15:27:02,15.08838734,0.000132,53.2171,102.1544,88.4331,271.6812,5.2031e-05,5.4e-06,0.0,0 STARLINK-3210,1 49755U 21115AH  23132.64377397  .00000540  00000-0  52031-4 0  9991,2 49755  53.2171 102.1544 0001320  88.4331 271.6812 15.08838734 79731,6917.884,95.438,540.662,538.836,0.0
49755.0,STARLINK-3210,PAYLOAD,2023-05-13 04:10:06,15.08845335,0.0001291,53.2169,99.7752,88.6512,271.4628,0.00010705,1.416e-05,0.0,0 STARLINK-3210,1 49755U 21115AH  23133.17368821  .00001416  00000-0  10705-3 0  9996,2 49755  53.2169  99.7752 0001291  88.6512 271.4628 15.08845335 80921,6917.864,95.437,540.622,538.836,0.0
